#aV2012 12 30  0  0  0.00000000     288 DD+AD WGS84 FIT  NGA
## 1721      0.00000000   300.00000000 56291 0.0000000000000
+   31     1  2  3  4  5  6  7  8  9 10 11 12 13 14 15 16 17
+         18 19 20 21 22 23 24 25 26 28 29 30 31 32  0  0  0
+          0  0  0  0  0  0  0  0  0  0  0  0  0  0  0  0  0
+          0  0  0  0  0  0  0  0  0  0  0  0  0  0  0  0  0
+          0  0  0  0  0  0  0  0  0  0  0  0  0  0  0  0  0
++         2  2  2  2  2  2  2  2  2  2  2  2  2  2  2  2  2
++         2  2  2  2  2  2  2  2  2  2  2  2  2  2  2  0  0
++         0  0  0  0  0  0  0  0  0  0  0  0  0  0  0  0  0
++         0  0  0  0  0  0  0  0  0  0  0  0  0  0  0  0  0
++         0  0  0  0  0  0  0  0  0  0  0  0  0  0  0  0  0
%c cc cc ccc ccc cccc cccc cccc cccc ccccc ccccc ccccc ccccc
%c cc cc ccc ccc cccc cccc cccc cccc ccccc ccccc ccccc ccccc
%f  0.0000000  0.000000000  0.00000000000  0.000000000000000
%f  0.0000000  0.000000000  0.00000000000  0.000000000000000
%i    0    0    0    0      0      0      0      0         0
%i    0    0    0    0      0      0      0      0         0
/*      NGA, ST. LOUIS,MO.                                  
/*   EPHEMERIS COMPUTED FROM  1 DAYS OF DATA
/*   EPOCHA SMOOTHER  
/* CCCCCCCCCCCCCCCCCCCCCCCCCCCCCCCCCCCCCCCCCCCCCCCCCCCCCCCCC
*  2012 12 30 21 20  0.00000000                                                 
P  1 -13972.326154  19353.381071  11556.410868    290.474738                    
V  1   1688.133309 -14846.417108  26910.802877      0.022040                    
P  2  15446.236944   2560.357380 -21263.836634    413.158745                    
V  2  -6659.383712  26695.616098  -2121.568383      0.012741                    
P  3 -22487.500211  -5757.643473  12613.956384    148.671744                    
V  3 -11410.147363 -12668.391713 -24899.233073      0.051351                    
P  4   9217.447306  16960.738030 -18399.036880     90.629624                    
V  4  -8162.259901  21570.704892  16331.962764      0.111212                    
P  5  25948.948271  -2377.732837  -5568.148564   -375.855045                    
V  5  -6086.875266   4564.879115 -30342.488542     -0.021513                    
P  6 -22360.790417 -11651.756291   8966.454846    405.934797                    
V  6  -6297.958920  -9676.520075 -28255.173492     -0.134503                    
P  7  -5947.433417  25587.975786   2711.289659    163.229500                    
V  7  -3458.666695   2508.021216 -32022.537122      0.044309                    
P  8    906.095482  22158.365312  14251.626842      3.722850                    
V  8  -8314.512800  16155.679894 -25331.161319      0.002407                    
P  9  15607.874472  -9506.205626  18740.577304    210.268728                    
V  9  -5600.953450  24278.769104  16457.037777      0.026172                    
P 10  15370.596501  10768.589476 -19230.358420    -64.274063                    
V 10 -22863.423540   6525.933892 -14425.997562     -0.014951                    
P 11 -13730.108367  14430.485171  17016.028358   -338.594730                    
V 11  -3210.919211 -22806.630732  16631.829954     -0.037910                    
P 12  21467.904146 -11643.397115 -10211.258570    109.713173                    
V 12  13111.564950   -769.919921  28682.741405      0.020415                    
P 13  -1231.375266  18704.760524 -18905.711320    156.211613                    
V 13 -15594.125132 -17887.669115 -16911.082907     -0.028653                    
P 14 -13906.230849 -22138.181139   5291.893767    218.969895                    
V 14   5754.577665   3569.563036  31070.495735      0.004755                    
P 15  16709.453726  -4178.178005  20262.039283   -103.704765                    
V 15  17644.924273  18802.952673 -10418.789391     -0.011168                    
P 16 -25934.731044    775.492316  -6436.831932   -251.355597                    
V 16   7579.546361  -3291.421284 -30646.165569     -0.003670                    
P 17  15349.428125  21485.430921   4118.385910     64.396292                    
V 17  -5099.006805  -2079.949073  31115.630665     -0.035655                    
P 18   1798.448501 -16611.324132  20975.933486    231.979296                    
V 18  25441.849801  -5232.755889  -6797.711105      0.018375                    
P 19 -17837.714057   -257.291503  19726.631269   -335.574682                    
V 19 -14931.239116 -20188.197566 -13311.987906     -0.033138                    
P 20 -19925.367755  14172.631993 -10448.622839     78.263875                    
V 20 -13522.444564    567.886944  27077.856957      0.013292                    
P 21   2078.799516 -25418.730468   6827.815183   -271.580635                    
V 21   6050.971919  -6750.961517 -29782.336289     -0.023350                    
P 22 -12127.016841 -12680.704287  20154.715382    154.602682                    
V 22  24311.086607  -7083.491085  10133.576985      0.009332                    
P 23 -10686.184021  10885.963925 -21677.305673    128.793286                    
V 23 -19132.187290 -20010.023969   -990.721218     -0.038033                    
P 24  15090.524908 -16396.811792  14440.516996      1.475817                    
V 24  -2853.042921  18248.986036  23724.798320     -0.006367                    
P 25  10888.122323 -15767.800159 -18393.055610     59.677283                    
V 25  22901.252719  -4431.572914  17463.499327      0.024057                    
P 26  19978.303785   9704.979936  14196.568576   -156.109232                    
V 26  10608.230560  15777.306749 -24293.984792      0.135544                    
P 28   7670.348143  13575.658877  22107.039669    218.909443                    
V 28 -26085.652269   5248.120540   5789.642775      0.035528                    
P 29   1494.360832 -18351.355401 -19105.233479    392.880891                    
V 29  17016.189824  17455.710830 -15355.440800      0.039614                    
P 30 -20438.932301  -4941.848871 -16563.179119   -267.471868                    
V 30  18605.895595  -8501.491282 -20888.629578      0.126586                    
P 31 -10397.424898 -12853.734433 -20532.867139    295.070840                    
V 31   8781.152477 -25040.848193  11382.484729      0.020324                    
P 32 -25125.244527   6661.096077  -3738.201661   -521.701110                    
V 32  -5511.625758  -2751.078868  31361.952725     -0.034800                    
EOF
